{
  "type": "Feature",
  "properties": {
    "name": "ミッドランドスクエア",
    "address": "愛知県名古屋市中村区名駅四丁目7番1号",
    "boundary_source": "OpenStreetMap",
    "osm_type": "way",
    "osm_id": 199919504,
    "retrieved_at": "2026-08-02",
    "license": "Open Database License 1.0",
    "source_url": "https://www.openstreetmap.org/way/199919504"
  },
  "geometry": {
    "type": "Polygon",
    "coordinates": [
      [
        [136.8846994, 35.1707844],
        [136.8848253, 35.1702476],
        [136.8850931, 35.1694336],
        [136.8852489, 35.1694279],
        [136.8852489, 35.1694843],
        [136.8854718, 35.1694741],
        [136.8855338, 35.1702061],
        [136.8854028, 35.1702220],
        [136.8854380, 35.1707529],
        [136.8848604, 35.1707784],
        [136.8846994, 35.1707844]
      ]
    ]
  }
}
